SENTINEL-2A             
1 40697U 15028A   26204.85806826 -.00000099  00000+0 -21125-4 0  9993
2 40697  98.5670 279.1864 0001350  95.9931 264.1406 14.30815619578972
SENTINEL-2B             
1 42063U 17013A   26204.85087481 -.00000106  00000+0 -23985-4 0  9991
2 42063  98.5677 279.1051 0001239  92.2066 267.9259 14.30816223489881
SENTINEL-2C             
1 60989U 24157A   26204.67606258  .00000073  00000+0  44422-4 0  9994
2 60989  98.5678 278.9391 0001057 109.0448 251.0850 14.30817474 98204
